{"type": "FeatureCollection", "features": [ {"type": "Feature", "properties": {"norad_id": 36073, "name": "COSMOS 2251 DEB", "group": "cosmos-2251-debris", "lat": 71.65919810900829, "lon": 33.92092808944014, "alt_km": 754.4965291400285, "timestamp": "2025-12-06T09:34:17.311272+00:00", "meta": {"OBJECT_NAME": "COSMOS 2251 DEB", "OBJECT_ID": "1993-036AYL", "EPOCH": "2025-12-05T08:05:57.966144", "MEAN_MOTION": 14.34937628, "ECCENTRICITY": 0.00235374, "INCLINATION": 74.0317, "RA_OF_ASC_NODE": 336.1285, "ARG_OF_PERICENTER": 46.3529, "MEAN_ANOMALY": 313.9569, "EPHEMERIS_TYPE": 0, "CLASSIFICATION_TYPE": "U", "NORAD_CAT_ID": 36073, "ELEMENT_SET_NO": 999, "REV_AT_EPOCH": 70101, "BSTAR": 0.00039460589, "MEAN_MOTION_DOT": 1.1e-05, "MEAN_MOTION_DDOT": 0}, "tle": {"line1": "1 36073U 93036AYL 25339.33747646  .00001100  00000+0  39461-3 0  9999", "line2": "2 36073  74.0317 336.1285 0023537  46.3529 313.9569 14.34937628701012"}}, "geometry": {"type": "Point", "coordinates": [33.92092808944014, 71.65919810900829]}}, {"type": "Feature", "properties": {"norad_id": 36074, "name": "COSMOS 2251 DEB", "group": "cosmos-2251-debris", "lat": 16.622331045888835, "lon": -2.776288896787605, "alt_km": 735.8764872726797, "timestamp": "2025-12-06T09:34:17.311283+00:00", "meta": {"OBJECT_NAME": "COSMOS 2251 DEB", "OBJECT_ID": "1993-036AYM", "EPOCH": "2025-12-04T07:35:54.379968", "MEAN_MOTION": 14.43651509, "ECCENTRICITY": 0.0041318, "INCLINATION": 73.9929, "RA_OF_ASC_NODE": 356.1864, "ARG_OF_PERICENTER": 90.6412, "MEAN_ANOMALY": 269.9479, "EPHEMERIS_TYPE": 0, "CLASSIFICATION_TYPE": "U", "NORAD_CAT_ID": 36074, "ELEMENT_SET_NO": 999, "REV_AT_EPOCH": 85788, "BSTAR": 0.0017767, "MEAN_MOTION_DOT": 6.071e-05, "MEAN_MOTION_DDOT": 0}, "tle": {"line1": "1 36074U 93036AYM 25338.31660162  .00006071  00000+0  17767-2 0  9990", "line2": "2 36074  73.9929 356.1864 0041318  90.6412 269.9479 14.43651509857883"}}, "geometry": {"type": "Point", "coordinates": [-2.776288896787605, 16.622331045888835]}}, {"type": "Feature", "properties": {"norad_id": 36366, "name": "COSMOS 2251 DEB", "group": "cosmos-2251-debris", "lat": -7.894679468381161, "lon": 106.91192554026375, "alt_km": 822.2620050691185, "timestamp": "2025-12-06T09:34:17.311293+00:00", "meta": {"OBJECT_NAME": "COSMOS 2251 DEB", "OBJECT_ID": "1993-036AYT", "EPOCH": "2025-12-02T05:51:07.218720", "MEAN_MOTION": 14.33192884, "ECCENTRICITY": 0.0091167, "INCLINATION": 74.0653, "RA_OF_ASC_NODE": 292.2194, "ARG_OF_PERICENTER": 322.5756, "MEAN_ANOMALY": 36.9067, "EPHEMERIS_TYPE": 0, "CLASSIFICATION_TYPE": "U", "NORAD_CAT_ID": 36366, "ELEMENT_SET_NO": 999, "REV_AT_EPOCH": 86138, "BSTAR": 0.0027816, "MEAN_MOTION_DOT": 7.987e-05, "MEAN_MOTION_DDOT": 0}, "tle": {"line1": "1 36366U 93036AYT 25336.24383355  .00007987  00000+0  27816-2 0  9993", "line2": "2 36366  74.0653 292.2194 0091167 322.5756  36.9067 14.33192884861384"}}, "geometry": {"type": "Point", "coordinates": [106.91192554026375, -7.894679468381161]}}, {"type": "Feature", "properties": {"norad_id": 36367, "name": "COSMOS 2251 DEB", "group": "cosmos-2251-debris", "lat": -34.047017960678446, "lon": 73.21915907703867, "alt_km": 978.624763141127, "timestamp": "2025-12-06T09:34:17.311303+00:00", "meta": {"OBJECT_NAME": "COSMOS 2251 DEB", "OBJECT_ID": "1993-036AYU", "EPOCH": "2025-12-05T11:43:41.661696", "MEAN_MOTION": 13.86269384, "ECCENTRICITY": 0.02628289, "INCLINATION": 74.1003, "RA_OF_ASC_NODE": 243.6494, "ARG_OF_PERICENTER": 318.0487, "MEAN_ANOMALY": 40.0764, "EPHEMERIS_TYPE": 0, "CLASSIFICATION_TYPE": "U", "NORAD_CAT_ID": 36367, "ELEMENT_SET_NO": 999, "REV_AT_EPOCH": 57429, "BSTAR": 0.0027381355, "MEAN_MOTION_DOT": 4.128e-05, "MEAN_MOTION_DDOT": 0}, "tle": {"line1": "1 36367U 93036AYU 25339.48867664  .00004128  00000+0  27381-2 0  9994", "line2": "2 36367  74.1003 243.6494 0262828 318.0487  40.0764 13.86269384574291"}}, "geometry": {"type": "Point", "coordinates": [73.21915907703867, -34.047017960678446]}}, {"type": "Feature", "properties": {"norad_id": 36369, "name": "COSMOS 2251 DEB", "group": "cosmos-2251-debris", "lat": -10.355603534112566, "lon": -93.90469072185786, "alt_km": 646.4503345786516, "timestamp": "2025-12-06T09:34:17.311314+00:00", "meta": {"OBJECT_NAME": "COSMOS 2251 DEB", "OBJECT_ID": "1993-036AYW", "EPOCH": "2025-12-03T00:51:19.677888", "MEAN_MOTION": 14.73251105, "ECCENTRICITY": 0.00123913, "INCLINATION": 74.0302, "RA_OF_ASC_NODE": 89.6499, "ARG_OF_PERICENTER": 171.9331, "MEAN_ANOMALY": 188.2043, "EPHEMERIS_TYPE": 0, "CLASSIFICATION_TYPE": "U", "NORAD_CAT_ID": 36369, "ELEMENT_SET_NO": 999, "REV_AT_EPOCH": 85779, "BSTAR": 0.0024127468, "MEAN_MOTION_DOT": 0.00015612, "MEAN_MOTION_DDOT": 0}, "tle": {"line1": "1 36369U 93036AYW 25337.03564442  .00015612  00000+0  24127-2 0  9998", "line2": "2 36369  74.0302  89.6499 0012391 171.9331 188.2043 14.73251105857792"}}, "geometry": {"type": "Point", "coordinates": [-93.90469072185786, -10.355603534112566]}}, {"type": "Feature", "properties": {"norad_id": 36371, "name": "COSMOS 2251 DEB", "group": "cosmos-2251-debris", "lat": 10.81052456140045, "lon": -9.28390599350638, "alt_km": 655.6067542927576, "timestamp": "2025-12-06T09:34:17.311324+00:00", "meta": {"OBJECT_NAME": "COSMOS 2251 DEB", "OBJECT_ID": "1993-036AYY", "EPOCH": "2025-12-05T06:40:48.082656", "MEAN_MOTION": 14.70365383, "ECCENTRICITY": 0.00103962, "INCLINATION": 74.0126, "RA_OF_ASC_NODE": 176.0302, "ARG_OF_PERICENTER": 214.7515, "MEAN_ANOMALY": 145.2978, "EPHEMERIS_TYPE": 0, "CLASSIFICATION_TYPE": "U", "NORAD_CAT_ID": 36371, "ELEMENT_SET_NO": 999, "REV_AT_EPOCH": 71335, "BSTAR": 0.003178426, "MEAN_MOTION_DOT": 0.00019262, "MEAN_MOTION_DDOT": 0}, "tle": {"line1": "1 36371U 93036AYY 25339.27833429  .00019262  00000+0  31784-2 0  9995", "line2": "2 36371  74.0126 176.0302 0010396 214.7515 145.2978 14.70365383713350"}}, "geometry": {"type": "Point", "coordinates": [-9.28390599350638, 10.81052456140045]}}, {"type": "Feature", "properties": {"norad_id": 36379, "name": "COSMOS 2251 DEB", "group": "cosmos-2251-debris", "lat": 34.34248137095623, "lon": -30.219104409430557, "alt_km": 749.8819813894124, "timestamp": "2025-12-06T09:34:17.311334+00:00", "meta": {"OBJECT_NAME": "COSMOS 2251 DEB", "OBJECT_ID": "1993-036AZG", "EPOCH": "2025-12-04T05:40:14.039904", "MEAN_MOTION": 14.36055986, "ECCENTRICITY": 0.0044512, "INCLINATION": 74.012, "RA_OF_ASC_NODE": 322.459, "ARG_OF_PERICENTER": 93.9116, "MEAN_ANOMALY": 287.0912, "EPHEMERIS_TYPE": 0, "CLASSIFICATION_TYPE": "U", "NORAD_CAT_ID": 36379, "ELEMENT_SET_NO": 999, "REV_AT_EPOCH": 64706, "BSTAR": 0.00051818, "MEAN_MOTION_DOT": 1.499e-05, "MEAN_MOTION_DDOT": 0}, "tle": {"line1": "1 36379U 93036AZG 25338.23627361  .00001499  00000+0  51818-3 0  9998", "line2": "2 36379  74.0120 322.4590 0044512  93.9116 287.0912 14.36055986647063"}}, "geometry": {"type": "Point", "coordinates": [-30.219104409430557, 34.34248137095623]}}, {"type": "Feature", "properties": {"norad_id": 36385, "name": "COSMOS 2251 DEB", "group": "cosmos-2251-debris", "lat": -52.684519490095894, "lon": 9.097094732264397, "alt_km": 687.9100309150072, "timestamp": "2025-12-06T09:34:17.311346+00:00", "meta": {"OBJECT_NAME": "COSMOS 2251 DEB", "OBJECT_ID": "1993-036AZN", "EPOCH": "2025-12-05T19:26:58.368192", "MEAN_MOTION": 14.72375676, "ECCENTRICITY": 0.01411185, "INCLINATION": 73.9686, "RA_OF_ASC_NODE": 168.0849, "ARG_OF_PERICENTER": 344.1431, "MEAN_ANOMALY": 15.5342, "EPHEMERIS_TYPE": 0, "CLASSIFICATION_TYPE": "U", "NORAD_CAT_ID": 36385, "ELEMENT_SET_NO": 999, "REV_AT_EPOCH": 85000, "BSTAR": 0.0022673036, "MEAN_MOTION_DOT": 0.00016811, "MEAN_MOTION_DDOT": 0}, "tle": {"line1": "1 36385U 93036AZN 25339.81039778  .00016811  00000+0  22673-2 0  9999", "line2": "2 36385  73.9686 168.0849 0141118 344.1431  15.5342 14.72375676850009"}}, "geometry": {"type": "Point", "coordinates": [9.097094732264397, -52.684519490095894]}}, {"type": "Feature", "properties": {"norad_id": 36420, "name": "COSMOS 2251 DEB", "group": "cosmos-2251-debris", "lat": -69.35150729764406, "lon": 156.56354216777763, "alt_km": 781.9581517440165, "timestamp": "2025-12-06T09:34:17.311356+00:00", "meta": {"OBJECT_NAME": "COSMOS 2251 DEB", "OBJECT_ID": "1993-036AZT", "EPOCH": "2025-12-03T05:28:58.353024", "MEAN_MOTION": 14.3688527, "ECCENTRICITY": 0.0017673, "INCLINATION": 74.0372, "RA_OF_ASC_NODE": 292.9652, "ARG_OF_PERICENTER": 23.016, "MEAN_ANOMALY": 40.8577, "EPHEMERIS_TYPE": 0, "CLASSIFICATION_TYPE": "U", "NORAD_CAT_ID": 36420, "ELEMENT_SET_NO": 999, "REV_AT_EPOCH": 84900, "BSTAR": 0.00024398, "MEAN_MOTION_DOT": 6.97e-06, "MEAN_MOTION_DDOT": 0}, "tle": {"line1": "1 36420U 93036AZT 25337.22845316  .00000697  00000+0  24398-3 0  9997", "line2": "2 36420  74.0372 292.9652 0017673  23.0160  40.8577 14.36885270849007"}}, "geometry": {"type": "Point", "coordinates": [156.56354216777763, -69.35150729764406]}}, {"type": "Feature", "properties": {"norad_id": 36430, "name": "COSMOS 2251 DEB", "group": "cosmos-2251-debris", "lat": 52.10282957490305, "lon": -81.58432191905217, "alt_km": 851.9898253546526, "timestamp": "2025-12-06T09:34:17.311366+00:00", "meta": {"OBJECT_NAME": "COSMOS 2251 DEB", "OBJECT_ID": "1993-036BAD", "EPOCH": "2025-12-02T02:24:06.345216", "MEAN_MOTION": 14.27749233, "ECCENTRICITY": 0.00972219, "INCLINATION": 74.0032, "RA_OF_ASC_NODE": 127.8413, "ARG_OF_PERICENTER": 280.0414, "MEAN_ANOMALY": 78.9776, "EPHEMERIS_TYPE": 0, "CLASSIFICATION_TYPE": "U", "NORAD_CAT_ID": 36430, "ELEMENT_SET_NO": 999, "REV_AT_EPOCH": 64405, "BSTAR": 0.00050130436, "MEAN_MOTION_DOT": 1.275e-05, "MEAN_MOTION_DDOT": 0}, "tle": {"line1": "1 36430U 93036BAD 25336.10007344  .00001275  00000+0  50130-3 0  9991", "line2": "2 36430  74.0032 127.8413 0097221 280.0414  78.9776 14.27749233644055"}}, "geometry": {"type": "Point", "coordinates": [-81.58432191905217, 52.10282957490305]}}]}